start=new Date('2023-06-24T00:00:00.000Z').valueOf();
sats=[{"SEMIMAJOR_AXIS":"6737.179","ELEMENT_SET_NO":"999","INCLINATION":"70.0016","MEAN_MOTION":"15.69949414","PERIOD":"91.723","MEAN_ANOMALY":"89.5477","REV_AT_EPOCH":"386","OBJECT_TYPE":"PAYLOAD","BSTAR":"0.00006434500000","COUNTRY_CODE":"US","CENTER_NAME":"EARTH","DECAY_DATE":null,"SITE":"AFWTR","ECCENTRICITY":"0.00037010","OBJECT_NAME":"STARLINK-5982","TIME_SYSTEM":"UTC","REF_FRAME":"TEME","LAUNCH_DATE":"2023-05-31","PERIAPSIS":"356.550","GP_ID":"234493613","MEAN_MOTION_DDOT":"0.0000000000000","OBJECT_ID":"2023-078BC","APOAPSIS":"361.537","FILE":"3940291","TLE_LINE2":"2 56817  70.0016 349.6197 0003701 270.5295  89.5477 15.69949414  3862","RA_OF_ASC_NODE":"349.6197","ARG_OF_PERICENTER":"270.5295","NORAD_CAT_ID":"56817","MEAN_MOTION_DOT":"0.00007540","RCS_SIZE":"LARGE","CLASSIFICATION_TYPE":"U","EPHEMERIS_TYPE":"0","TLE_LINE1":"1 56817U 23078BC  23173.92075500  .00007540  00000-0  64345-4 0  9993","MEAN_ELEMENT_THEORY":"SGP4","EPOCH":"2023-06-22T22:05:53.232000"},{"EPHEMERIS_TYPE":"0","TLE_LINE1":"1 56818U 23078BD  23174.62037749  .00028606  00000-0  23875-3 0  9993","MEAN_ELEMENT_THEORY":"SGP4","CLASSIFICATION_TYPE":"U","RCS_SIZE":"LARGE","EPOCH":"2023-06-23T14:53:20.615136","ARG_OF_PERICENTER":"276.0485","RA_OF_ASC_NODE":"347.6450","MEAN_MOTION_DOT":"0.00028606","NORAD_CAT_ID":"56818","TLE_LINE2":"2 56818  70.0014 347.6450 0003833 276.0485  84.0274 15.69932781  3975","FILE":"3940833","APOAPSIS":"361.674","OBJECT_ID":"2023-078BD","MEAN_MOTION_DDOT":"0.0000000000000","REF_FRAME":"TEME","GP_ID":"234505793","PERIAPSIS":"356.509","LAUNCH_DATE":"2023-05-31","SITE":"AFWTR","TIME_SYSTEM":"UTC","OBJECT_NAME":"STARLINK-6028","ECCENTRICITY":"0.00038330","DECAY_DATE":null,"CENTER_NAME":"EARTH","COUNTRY_CODE":"US","BSTAR":"0.00023875000000","OBJECT_TYPE":"PAYLOAD","MEAN_MOTION":"15.69932781","SEMIMAJOR_AXIS":"6737.226","ELEMENT_SET_NO":"999","INCLINATION":"70.0014","REV_AT_EPOCH":"397","PERIOD":"91.724","MEAN_ANOMALY":"84.0274"},{"MEAN_MOTION_DOT":"-0.01917591","NORAD_CAT_ID":"56823","RA_OF_ASC_NODE":"100.1443","ARG_OF_PERICENTER":"262.8986","EPOCH":"2023-06-23T14:00:01.000224","CLASSIFICATION_TYPE":"U","MEAN_ELEMENT_THEORY":"SGP4","TLE_LINE1":"1 56823U 23079A   23174.58334491 -.01917591  00000-0 -36487-1 0  9993","EPHEMERIS_TYPE":"0","RCS_SIZE":"LARGE","GP_ID":"234504681","PERIAPSIS":"414.162","LAUNCH_DATE":"2023-06-04","REF_FRAME":"TEME","FILE":"3940761","APOAPSIS":"416.249","TLE_LINE2":"2 56823  43.0007 100.1443 0001536 262.8986 168.0439 15.50520997  3466","MEAN_MOTION_DDOT":"0.0000000000000","OBJECT_ID":"2023-079A","CENTER_NAME":"EARTH","DECAY_DATE":null,"COUNTRY_CODE":"US","TIME_SYSTEM":"UTC","ECCENTRICITY":"0.00015360","OBJECT_NAME":"STARLINK-30119","SITE":"AFETR","REV_AT_EPOCH":"346","PERIOD":"92.872","MEAN_ANOMALY":"168.0439","MEAN_MOTION":"15.50520997","SEMIMAJOR_AXIS":"6793.341","ELEMENT_SET_NO":"999","INCLINATION":"43.0007","BSTAR":"-0.03648700000000","OBJECT_TYPE":"PAYLOAD"},{"REV_AT_EPOCH":"346","MEAN_ANOMALY":"143.2928","PERIOD":"93.311","SEMIMAJOR_AXIS":"6814.710","INCLINATION":"43.0006","ELEMENT_SET_NO":"999","MEAN_MOTION":"15.43233717","BSTAR":"-0.05135000000000","OBJECT_TYPE":"PAYLOAD","DECAY_DATE":null,"CENTER_NAME":"EARTH","COUNTRY_CODE":"US","TIME_SYSTEM":"UTC","OBJECT_NAME":"STARLINK-30120","ECCENTRICITY":"0.00009050","SITE":"AFETR","GP_ID":"234504693","PERIAPSIS":"435.958","LAUNCH_DATE":"2023-06-04","REF_FRAME":"TEME","TLE_LINE2":"2 56824  43.0006 100.2042 0000905 263.1151 143.2928 15.43233717  3460","APOAPSIS":"437.192","FILE":"3940769","OBJECT_ID":"2023-079B","MEAN_MOTION_DDOT":"0.0000000000000","MEAN_MOTION_DOT":"-0.02071633","NORAD_CAT_ID":"56824","RA_OF_ASC_NODE":"100.2042","ARG_OF_PERICENTER":"263.1151","EPOCH":"2023-06-23T14:00:01.000224","TLE_LINE1":"1 56824U 23079B   23174.58334491 -.02071633  00000-0 -51350-1 0  9999","MEAN_ELEMENT_THEORY":"SGP4","EPHEMERIS_TYPE":"0","CLASSIFICATION_TYPE":"U","RCS_SIZE":"LARGE"},{"MEAN_MOTION_DOT":"-0.02071987","NORAD_CAT_ID":"56825","ARG_OF_PERICENTER":"261.9898","RA_OF_ASC_NODE":"100.1958","EPOCH":"2023-06-23T14:00:01.000224","TLE_LINE1":"1 56825U 23079C   23174.58334491 -.02071987  00000-0 -50274-1 0  9996","MEAN_ELEMENT_THEORY":"SGP4","EPHEMERIS_TYPE":"0","CLASSIFICATION_TYPE":"U","RCS_SIZE":"LARGE","GP_ID":"234504195","PERIAPSIS":"433.832","LAUNCH_DATE":"2023-06-04","REF_FRAME":"TEME","TLE_LINE2":"2 56825  43.0006 100.1958 0001343 261.9898 147.9743 15.43854875  3467","FILE":"3940769","APOAPSIS":"435.662","OBJECT_ID":"2023-079C","MEAN_MOTION_DDOT":"0.0000000000000","DECAY_DATE":null,"CENTER_NAME":"EARTH","COUNTRY_CODE":"US","TIME_SYSTEM":"UTC","OBJECT_NAME":"STARLINK-30084","ECCENTRICITY":"0.00013430","SITE":"AFETR","REV_AT_EPOCH":"346","MEAN_ANOMALY":"147.9743","PERIOD":"93.273","ELEMENT_SET_NO":"999","SEMIMAJOR_AXIS":"6812.882","INCLINATION":"43.0006","MEAN_MOTION":"15.43854875","BSTAR":"-0.05027400000000","OBJECT_TYPE":"PAYLOAD"},{"OBJECT_TYPE":"PAYLOAD","BSTAR":"-0.00400200000000","PERIOD":"91.357","MEAN_ANOMALY":"91.9798","REV_AT_EPOCH":"341","MEAN_MOTION":"15.76226643","SEMIMAJOR_AXIS":"6719.280","ELEMENT_SET_NO":"999","INCLINATION":"43.0031","OBJECT_NAME":"STARLINK-30114","ECCENTRICITY":"0.00013510","TIME_SYSTEM":"UTC","SITE":"AFETR","COUNTRY_CODE":"US","DECAY_DATE":null,"CENTER_NAME":"EARTH","OBJECT_ID":"2023-079D","MEAN_MOTION_DDOT":"0.0000000000000","TLE_LINE2":"2 56826  43.0031 101.4084 0001351 268.0917  91.9798 15.76226643  3414","FILE":"3940769","APOAPSIS":"342.053","LAUNCH_DATE":"2023-06-04","PERIAPSIS":"340.237","GP_ID":"234504202","REF_FRAME":"TEME","EPOCH":"2023-06-23T03:51:57.018240","RCS_SIZE":"LARGE","EPHEMERIS_TYPE":"0","TLE_LINE1":"1 56826U 23079D   23174.16107660 -.00603991  00000-0 -40020-2 0  9990","MEAN_ELEMENT_THEORY":"SGP4","CLASSIFICATION_TYPE":"U","NORAD_CAT_ID":"56826","MEAN_MOTION_DOT":"-0.00603991","ARG_OF_PERICENTER":"268.0917","RA_OF_ASC_NODE":"101.4084"},{"TIME_SYSTEM":"UTC","OBJECT_NAME":"STARLINK-30151","ECCENTRICITY":"0.00014110","SITE":"AFETR","DECAY_DATE":null,"CENTER_NAME":"EARTH","COUNTRY_CODE":"US","BSTAR":"-0.05195700000000","OBJECT_TYPE":"PAYLOAD","REV_AT_EPOCH":"352","PERIOD":"93.335","MEAN_ANOMALY":"208.7557","SEMIMAJOR_AXIS":"6815.913","MEAN_MOTION":"15.42825220","ELEMENT_SET_NO":"999","INCLINATION":"43.0001","EPOCH":"2023-06-23T22:00:01.999584","MEAN_ELEMENT_THEORY":"SGP4","TLE_LINE1":"1 56827U 23079E   23174.91668981 -.02067948  00000-0 -51957-1 0  9990","EPHEMERIS_TYPE":"0","CLASSIFICATION_TYPE":"U","RCS_SIZE":"LARGE","MEAN_MOTION_DOT":"-0.02067948","NORAD_CAT_ID":"56827","ARG_OF_PERICENTER":"259.8630","RA_OF_ASC_NODE":"98.2588","TLE_LINE2":"2 56827  43.0001  98.2588 0001411 259.8630 208.7557 15.42825220  3523","FILE":"3941066","APOAPSIS":"438.739","OBJECT_ID":"2023-079E","MEAN_MOTION_DDOT":"0.0000000000000","GP_ID":"234511350","PERIAPSIS":"436.816","LAUNCH_DATE":"2023-06-04","REF_FRAME":"TEME"},{"MEAN_MOTION_DDOT":"0.0000000000000","OBJECT_ID":"2023-079F","FILE":"3940792","APOAPSIS":"432.393","TLE_LINE2":"2 56828  43.0001 100.1801 0001800 272.5067 144.1625 15.45072556  3464","PERIAPSIS":"429.941","LAUNCH_DATE":"2023-06-04","GP_ID":"234505276","REF_FRAME":"TEME","EPOCH":"2023-06-23T14:00:01.000224","RCS_SIZE":"LARGE","CLASSIFICATION_TYPE":"U","MEAN_ELEMENT_THEORY":"SGP4","TLE_LINE1":"1 56828U 23079F   23174.58334491 -.02062094  00000-0 -47945-1 0  9999","EPHEMERIS_TYPE":"0","NORAD_CAT_ID":"56828","MEAN_MOTION_DOT":"-0.02062094","RA_OF_ASC_NODE":"100.1801","ARG_OF_PERICENTER":"272.5067","OBJECT_TYPE":"PAYLOAD","BSTAR":"-0.04794500000000","MEAN_ANOMALY":"144.1625","PERIOD":"93.200","REV_AT_EPOCH":"346","SEMIMAJOR_AXIS":"6809.302","INCLINATION":"43.0001","ELEMENT_SET_NO":"999","MEAN_MOTION":"15.45072556","ECCENTRICITY":"0.00018000","OBJECT_NAME":"STARLINK-30152","TIME_SYSTEM":"UTC","SITE":"AFETR","COUNTRY_CODE":"US","CENTER_NAME":"EARTH","DECAY_DATE":null},{"SITE":"AFETR","ECCENTRICITY":"0.00050900","OBJECT_NAME":"STARLINK-30139","TIME_SYSTEM":"UTC","COUNTRY_CODE":"US","CENTER_NAME":"EARTH","DECAY_DATE":null,"OBJECT_TYPE":"PAYLOAD","BSTAR":"0.00126160000000","ELEMENT_SET_NO":"999","SEMIMAJOR_AXIS":"6658.213","INCLINATION":"43.0067","MEAN_MOTION":"15.97961085","MEAN_ANOMALY":"117.4599","PERIOD":"90.115","REV_AT_EPOCH":"354","RCS_SIZE":"LARGE","CLASSIFICATION_TYPE":"U","TLE_LINE1":"1 56829U 23079G   23174.84031088  .00596930  15996-3  12616-2 0  9993","MEAN_ELEMENT_THEORY":"SGP4","EPHEMERIS_TYPE":"0","EPOCH":"2023-06-23T20:10:02.860032","ARG_OF_PERICENTER":"242.5793","RA_OF_ASC_NODE":"95.2193","NORAD_CAT_ID":"56829","MEAN_MOTION_DOT":"0.00596930","MEAN_MOTION_DDOT":"0.0001599600000","OBJECT_ID":"2023-079G","FILE":"3940901","APOAPSIS":"283.467","TLE_LINE2":"2 56829  43.0067  95.2193 0005090 242.5793 117.4599 15.97961085  3546","REF_FRAME":"TEME","LAUNCH_DATE":"2023-06-04","PERIAPSIS":"276.689","GP_ID":"234507257"},{"TLE_LINE2":"2 56830  43.0049  99.3118 0003811 272.5970  87.4469 15.92918127  3770","FILE":"3940925","APOAPSIS":"296.666","OBJECT_ID":"2023-079H","MEAN_MOTION_DDOT":"0.0000711940000","REF_FRAME":"TEME","GP_ID":"234508505","PERIAPSIS":"291.581","LAUNCH_DATE":"2023-06-04","TLE_LINE1":"1 56830U 23079H   23174.23585520  .00405069  71194-4  11276-2 0  9999","MEAN_ELEMENT_THEORY":"SGP4","EPHEMERIS_TYPE":"0","CLASSIFICATION_TYPE":"U","RCS_SIZE":"LARGE","EPOCH":"2023-06-23T05:39:37.889280","ARG_OF_PERICENTER":"272.5970","RA_OF_ASC_NODE":"99.3118","NORAD_CAT_ID":"56830","MEAN_MOTION_DOT":"0.00405069","BSTAR":"0.00112760000000","OBJECT_TYPE":"PAYLOAD","MEAN_MOTION":"15.92918127","SEMIMAJOR_AXIS":"6672.259","ELEMENT_SET_NO":"999","INCLINATION":"43.0049","REV_AT_EPOCH":"377","PERIOD":"90.400","MEAN_ANOMALY":"87.4469","SITE":"AFETR","TIME_SYSTEM":"UTC","OBJECT_NAME":"STARLINK-30134","ECCENTRICITY":"0.00038110","DECAY_DATE":null,"CENTER_NAME":"EARTH","COUNTRY_CODE":"US"}];
